[{"OBJECT_NAME":"UFO 8 (USA 138)","OBJECT_ID":"1998-016A","EPOCH":"2026-04-04T15:01:00.772032","MEAN_MOTION":1.0028201,"ECCENTRICITY":0.0006845,"INCLINATION":11.0432,"RA_OF_ASC_NODE":23.204,"ARG_OF_PERICENTER":277.5466,"MEAN_ANOMALY":269.8941,"EPHEMERIS_TYPE":0,"CLASSIFICATION_TYPE":"U","NORAD_CAT_ID":25258,"ELEMENT_SET_NO":999,"REV_AT_EPOCH":10312,"BSTAR":0,"MEAN_MOTION_DOT":-1.91e-6,"MEAN_MOTION_DDOT":0},{"OBJECT_NAME":"COSMOS 2350","OBJECT_ID":"1998-025A","EPOCH":"2026-04-04T22:06:08.804736","MEAN_MOTION":1.00286051,"ECCENTRICITY":0.00044274,"INCLINATION":13.9371,"RA_OF_ASC_NODE":4.3825,"ARG_OF_PERICENTER":184.2577,"MEAN_ANOMALY":49.6781,"EPHEMERIS_TYPE":0,"CLASSIFICATION_TYPE":"U","NORAD_CAT_ID":25315,"ELEMENT_SET_NO":999,"REV_AT_EPOCH":10227,"BSTAR":0,"MEAN_MOTION_DOT":-9.8e-7,"MEAN_MOTION_DDOT":0},{"OBJECT_NAME":"SL-12 R/B(2)","OBJECT_ID":"1998-025D","EPOCH":"2026-04-04T10:18:08.712000","MEAN_MOTION":1.00056704,"ECCENTRICITY":0.00293693,"INCLINATION":13.9611,"RA_OF_ASC_NODE":4.4235,"ARG_OF_PERICENTER":131.6417,"MEAN_ANOMALY":48.3728,"EPHEMERIS_TYPE":0,"CLASSIFICATION_TYPE":"U","NORAD_CAT_ID":25318,"ELEMENT_SET_NO":999,"REV_AT_EPOCH":10203,"BSTAR":0,"MEAN_MOTION_DOT":8.1e-7,"MEAN_MOTION_DDOT":0},{"OBJECT_NAME":"BADR-3 (ARABSAT-3A)","OBJECT_ID":"1999-009A","EPOCH":"2026-04-04T11:51:38.670912","MEAN_MOTION":1.00135128,"ECCENTRICITY":0.00073908,"INCLINATION":11.8172,"RA_OF_ASC_NODE":33.0757,"ARG_OF_PERICENTER":330.8685,"MEAN_ANOMALY":226.726,"EPHEMERIS_TYPE":0,"CLASSIFICATION_TYPE":"U","NORAD_CAT_ID":25638,"ELEMENT_SET_NO":999,"REV_AT_EPOCH":9922,"BSTAR":0,"MEAN_MOTION_DOT":9.8e-7,"MEAN_MOTION_DDOT":0},{"OBJECT_NAME":"RADUGA-1 4","OBJECT_ID":"1999-010A","EPOCH":"2026-04-04T22:45:52.718976","MEAN_MOTION":1.00245342,"ECCENTRICITY":0.00072433,"INCLINATION":15.6203,"RA_OF_ASC_NODE":2.2354,"ARG_OF_PERICENTER":289.8501,"MEAN_ANOMALY":354.0921,"EPHEMERIS_TYPE":0,"CLASSIFICATION_TYPE":"U","NORAD_CAT_ID":25642,"ELEMENT_SET_NO":999,"REV_AT_EPOCH":9921,"BSTAR":0,"MEAN_MOTION_DOT":-3.66e-6,"MEAN_MOTION_DDOT":0},{"OBJECT_NAME":"TELKOM 1","OBJECT_ID":"1999-042A","EPOCH":"2026-04-04T23:26:18.081888","MEAN_MOTION":1.00245292,"ECCENTRICITY":0.00166946,"INCLINATION":7.5,"RA_OF_ASC_NODE":67.1266,"ARG_OF_PERICENTER":261.3025,"MEAN_ANOMALY":297.3891,"EPHEMERIS_TYPE":0,"CLASSIFICATION_TYPE":"U","NORAD_CAT_ID":25880,"ELEMENT_SET_NO":999,"REV_AT_EPOCH":9765,"BSTAR":0,"MEAN_MOTION_DOT":-1.38e-6,"MEAN_MOTION_DDOT":0},{"OBJECT_NAME":"ABS-7","OBJECT_ID":"1999-046A","EPOCH":"2026-04-05T03:17:32.848800","MEAN_MOTION":0.99980305,"ECCENTRICITY":0.00037384,"INCLINATION":6.2948,"RA_OF_ASC_NODE":71.6364,"ARG_OF_PERICENTER":280.5368,"MEAN_ANOMALY":61.8915,"EPHEMERIS_TYPE":0,"CLASSIFICATION_TYPE":"U","NORAD_CAT_ID":25894,"ELEMENT_SET_NO":999,"REV_AT_EPOCH":9634,"BSTAR":0,"MEAN_MOTION_DOT":-7.0e-7,"MEAN_MOTION_DDOT":0},{"OBJECT_NAME":"YAMAL 102","OBJECT_ID":"1999-047B","EPOCH":"2026-04-05T02:22:30.626976","MEAN_MOTION":0.99998432,"ECCENTRICITY":0.00051611,"INCLINATION":13.6353,"RA_OF_ASC_NODE":13.239,"ARG_OF_PERICENTER":351.0879,"MEAN_ANOMALY":203.7958,"EPHEMERIS_TYPE":0,"CLASSIFICATION_TYPE":"U","NORAD_CAT_ID":25897,"ELEMENT_SET_NO":999,"REV_AT_EPOCH":9726,"BSTAR":0,"MEAN_MOTION_DOT":-2.17e-6,"MEAN_MOTION_DDOT":0},{"OBJECT_NAME":"ABS-6","OBJECT_ID":"1999-053A","EPOCH":"2026-04-05T03:13:55.696224","MEAN_MOTION":1.00271979,"ECCENTRICITY":0.00029778,"INCLINATION":0.0482,"RA_OF_ASC_NODE":91.7147,"ARG_OF_PERICENTER":303.7121,"MEAN_ANOMALY":5.4832,"EPHEMERIS_TYPE":0,"CLASSIFICATION_TYPE":"U","NORAD_CAT_ID":25924,"ELEMENT_SET_NO":999,"REV_AT_EPOCH":9710,"BSTAR":0,"MEAN_MOTION_DOT":-1.19e-6,"MEAN_MOTION_DDOT":0},{"OBJECT_NAME":"UFO 10 (USA 146)","OBJECT_ID":"1999-063A","EPOCH":"2026-04-05T04:13:38.701632","MEAN_MOTION":1.00276433,"ECCENTRICITY":0.00047641,"INCLINATION":9.8503,"RA_OF_ASC_NODE":27.5931,"ARG_OF_PERICENTER":310.4565,"MEAN_ANOMALY":255.9371,"EPHEMERIS_TYPE":0,"CLASSIFICATION_TYPE":"U","NORAD_CAT_ID":25967,"ELEMENT_SET_NO":999,"REV_AT_EPOCH":9661,"BSTAR":0,"MEAN_MOTION_DOT":-1.85e-6,"MEAN_MOTION_DDOT":0},{"OBJECT_NAME":"GALAXY 10R (G-10R)","OBJECT_ID":"2000-002A","EPOCH":"2026-04-04T11:51:38.670912","MEAN_MOTION":0.99637858,"ECCENTRICITY":0.00028568,"INCLINATION":12.059,"RA_OF_ASC_NODE":31.7708,"ARG_OF_PERICENTER":196.6714,"MEAN_ANOMALY":6.6131,"EPHEMERIS_TYPE":0,"CLASSIFICATION_TYPE":"U","NORAD_CAT_ID":26056,"ELEMENT_SET_NO":999,"REV_AT_EPOCH":9559,"BSTAR":0,"MEAN_MOTION_DOT":9.4e-7,"MEAN_MOTION_DDOT":0},{"OBJECT_NAME":"GARUDA 1","OBJECT_ID":"2000-011A","EPOCH":"2026-04-05T01:49:11.323200","MEAN_MOTION":0.99909067,"ECCENTRICITY":0.00039708,"INCLINATION":9.476,"RA_OF_ASC_NODE":64.7669,"ARG_OF_PERICENTER":266.5363,"MEAN_ANOMALY":111.3078,"EPHEMERIS_TYPE":0,"CLASSIFICATION_TYPE":"U","NORAD_CAT_ID":26089,"ELEMENT_SET_NO":999,"REV_AT_EPOCH":4093,"BSTAR":0,"MEAN_MOTION_DOT":1.16e-6,"MEAN_MOTION_DDOT":0},{"OBJECT_NAME":"SL-12 R/B(2)","OBJECT_ID":"2000-013D","EPOCH":"2026-04-04T05:42:16.753824","MEAN_MOTION":1.00764837,"ECCENTRICITY":0.00067325,"INCLINATION":14.3154,"RA_OF_ASC_NODE":1.381,"ARG_OF_PERICENTER":61.5655,"MEAN_ANOMALY":122.8636,"EPHEMERIS_TYPE":0,"CLASSIFICATION_TYPE":"U","NORAD_CAT_ID":26101,"ELEMENT_SET_NO":999,"REV_AT_EPOCH":9589,"BSTAR":0,"MEAN_MOTION_DOT":-2.45e-6,"MEAN_MOTION_DDOT":0},{"OBJECT_NAME":"ASIASTAR","OBJECT_ID":"2000-016A","EPOCH":"2026-04-04T20:07:51.449088","MEAN_MOTION":1.00271761,"ECCENTRICITY":0.00050951,"INCLINATION":8.9609,"RA_OF_ASC_NODE":58.9264,"ARG_OF_PERICENTER":325.7866,"MEAN_ANOMALY":215.4218,"EPHEMERIS_TYPE":0,"CLASSIFICATION_TYPE":"U","NORAD_CAT_ID":26107,"ELEMENT_SET_NO":999,"REV_AT_EPOCH":9518,"BSTAR":0,"MEAN_MOTION_DOT":-3.31e-6,"MEAN_MOTION_DDOT":0},{"OBJECT_NAME":"GALAXY 4R (G-4R)","OBJECT_ID":"2000-020A","EPOCH":"2026-04-04T08:50:47.090976","MEAN_MOTION":0.99828582,"ECCENTRICITY":0.00051572,"INCLINATION":12.65,"RA_OF_ASC_NODE":24.6106,"ARG_OF_PERICENTER":249.3174,"MEAN_ANOMALY":303.0436,"EPHEMERIS_TYPE":0,"CLASSIFICATION_TYPE":"U","NORAD_CAT_ID":26298,"ELEMENT_SET_NO":999,"REV_AT_EPOCH":9488,"BSTAR":0,"MEAN_MOTION_DOT":-2.5e-7,"MEAN_MOTION_DDOT":0},{"OBJECT_NAME":"USA 149 (DSP 20)","OBJECT_ID":"2000-024A","EPOCH":"2026-04-04T13:15:38.706912","MEAN_MOTION":1.00267836,"ECCENTRICITY":0.00016196,"INCLINATION":13.1164,"RA_OF_ASC_NODE":12.3719,"ARG_OF_PERICENTER":350.2382,"MEAN_ANOMALY":223.9079,"EPHEMERIS_TYPE":0,"CLASSIFICATION_TYPE":"U","NORAD_CAT_ID":26356,"ELEMENT_SET_NO":999,"REV_AT_EPOCH":3217,"BSTAR":0,"MEAN_MOTION_DOT":9.5e-7,"MEAN_MOTION_DDOT":0},{"OBJECT_NAME":"IUS R/B(2)","OBJECT_ID":"2000-024D","EPOCH":"2026-04-04T03:49:04.848096","MEAN_MOTION":0.99708638,"ECCENTRICITY":0.00052565,"INCLINATION":13.2674,"RA_OF_ASC_NODE":13.1101,"ARG_OF_PERICENTER":180.7507,"MEAN_ANOMALY":179.2053,"EPHEMERIS_TYPE":0,"CLASSIFICATION_TYPE":"U","NORAD_CAT_ID":26359,"ELEMENT_SET_NO":999,"REV_AT_EPOCH":2463,"BSTAR":0,"MEAN_MOTION_DOT":-3.45e-6,"MEAN_MOTION_DDOT":0}]
