UFO 8 (USA 138)         
1 25258U 98016A   26094.62570338 -.00000191  00000+0  00000+0 0  9991
2 25258  11.0432  23.2040 0006845 277.5466 269.8941  1.00282010103126
COSMOS 2350             
1 25315U 98025A   26094.92093524 -.00000098  00000+0  00000+0 0  9991
2 25315  13.9371   4.3825 0004427 184.2577  49.6781  1.00286051102275
SL-12 R/B(2)            
1 25318U 98025D   26094.42926750  .00000081  00000+0  00000+0 0  9996
2 25318  13.9611   4.4235 0029369 131.6417  48.3728  1.00056704102033
BADR-3 (ARABSAT-3A)     
1 25638U 99009A   26094.49419758  .00000098  00000+0  00000+0 0  9994
2 25638  11.8172  33.0757 0007390 330.8685 226.7260  1.00135128 99221
RADUGA-1 4              
1 25642U 99010A   26094.94852684 -.00000366  00000+0  00000+0 0  9999
2 25642  15.6203   2.2354 0007243 289.8501 354.0921  1.00245342 99219
TELKOM 1                
1 25880U 99042A   26094.97659817 -.00000138  00000+0  00000+0 0  9991
2 25880   7.5000  67.1266 0016694 261.3025 297.3891  1.00245292 97651
ABS-7                   
1 25894U 99046A   26095.13718575 -.00000070  00000+0  00000+0 0  9991
2 25894   6.2948  71.6364 0003738 280.5368  61.8915  0.99980305 96344
YAMAL 102               
1 25897U 99047B   26095.09896559 -.00000217  00000+0  00000+0 0  9992
2 25897  13.6353  13.2390 0005161 351.0879 203.7958  0.99998432 97269
ABS-6                   
1 25924U 99053A   26095.13467241 -.00000119  00000+0  00000+0 0  9998
2 25924   0.0482  91.7147 0002977 303.7121   5.4832  1.00271979 97104
UFO 10 (USA 146)        
1 25967U 99063A   26095.17614238 -.00000185  00000+0  00000+0 0  9993
2 25967   9.8503  27.5931 0004764 310.4565 255.9371  1.00276433 96618
GALAXY 10R (G-10R)      
1 26056U 00002A   26094.49419758  .00000094  00000+0  00000+0 0  9990
2 26056  12.0590  31.7708 0002856 196.6714   6.6131  0.99637858 95599
GARUDA 1                
1 26089U 00011A   26095.07582550  .00000116  00000+0  00000+0 0  9997
2 26089   9.4760  64.7669 0003970 266.5363 111.3078  0.99909067 40937
SL-12 R/B(2)            
1 26101U 00013D   26094.23769391 -.00000245  00000+0  00000+0 0  9995
2 26101  14.3154   1.3810 0006732  61.5655 122.8636  1.00764837 95894
ASIASTAR                
1 26107U 00016A   26094.83878992 -.00000331  00000+0  00000+0 0  9994
2 26107   8.9609  58.9264 0005095 325.7866 215.4218  1.00271761 95181
GALAXY 4R (G-4R)        
1 26298U 00020A   26094.36860059 -.00000025  00000+0  00000+0 0  9993
2 26298  12.6500  24.6106 0005157 249.3174 303.0436  0.99828582 94889
USA 149 (DSP 20)        
1 26356U 00024A   26094.55253133  .00000095  00000+0  00000+0 0  9998
2 26356  13.1164  12.3719 0001619 350.2382 223.9079  1.00267836 32171
IUS R/B(2)              
1 26359U 00024D   26094.15908389 -.00000345  00000+0  00000+0 0  9996
2 26359  13.2674  13.1101 0005256 180.7507 179.2053  0.99708638 24635
